#aV2013  8 28  0  0  0.00000000     288 DD+AD WGS84 FIT  NGA
## 1755 259200.00000000   300.00000000 56532 0.0000000000000
+   31     1  2  3  4  5  6  7  8  9 10 11 12 13 14 15 16 17
+         18 19 20 21 22 23 24 25 26 27 28 29 31 32  0  0  0
+          0  0  0  0  0  0  0  0  0  0  0  0  0  0  0  0  0
+          0  0  0  0  0  0  0  0  0  0  0  0  0  0  0  0  0
+          0  0  0  0  0  0  0  0  0  0  0  0  0  0  0  0  0
++         2  2  2  2  2  2  2  2  2  2  2  2  2  2  2  2  2
++         2  2  2  2  2  2  2  2  2  2  2  2  2  2  2  0  0
++         0  0  0  0  0  0  0  0  0  0  0  0  0  0  0  0  0
++         0  0  0  0  0  0  0  0  0  0  0  0  0  0  0  0  0
++         0  0  0  0  0  0  0  0  0  0  0  0  0  0  0  0  0
%c cc cc ccc ccc cccc cccc cccc cccc ccccc ccccc ccccc ccccc
%c cc cc ccc ccc cccc cccc cccc cccc ccccc ccccc ccccc ccccc
%f  0.0000000  0.000000000  0.00000000000  0.000000000000000
%f  0.0000000  0.000000000  0.00000000000  0.000000000000000
%i    0    0    0    0      0      0      0      0         0
%i    0    0    0    0      0      0      0      0         0
/*      NGA, ST. LOUIS,MO.                                  
/*   EPHEMERIS COMPUTED FROM  1 DAYS OF DATA
/*   EPOCHA SMOOTHER  
/* CCCCCCCCCCCCCCCCCCCCCCCCCCCCCCCCCCCCCCCCCCCCCCCCCCCCCCCCC
*  2013  8 28  1 50  0.00000000                                                 
P  1  -4408.802950  17617.660496 -19370.248990     68.199831                    
V  1 -22373.807295  10259.408911  14541.784291      0.044070                    
P  2  22328.424832 -13791.756518   1627.761210    448.592316                    
V  2   3515.801362   2537.044014 -31508.397211      0.017970                    
P  3  -9511.170130  18764.887544  15563.375670    251.799281                    
V  3  -4967.282889 -20472.727881  21132.948785      0.048923                    
P  4  24357.326510  -4551.532644 -10212.293519    311.706370                    
V  4  -9684.371440   8397.690912 -27367.565867      0.102165                    
P  5  15088.987255  -7854.217339  20405.932460   -399.651853                    
V  5  21525.551544  14577.285225 -10145.102341     -0.000527                    
P  6 -13667.857682  12071.908521  19244.342598     24.331013                    
V  6  -2384.161721 -24434.222494  14056.232567      0.193392                    
P  7  11750.768253  10415.831467  21521.625200    252.185804                    
V  7 -24060.362212  12483.585460   6801.004440      0.042147                    
P  8  20828.252639   3377.868484  16628.668212      8.174107                    
V  8 -18910.135670   8108.833948  21612.587774      0.000412                    
P  9  20505.527393   1430.709069  16354.956868    264.345592                    
V  9 -18467.240286  11468.040575  21340.665072      0.026161                    
P 10  23828.101870   7305.994289   9457.886953    -92.306538                    
V 10   8824.786389   9057.988478 -27909.032141     -0.014851                    
P 11  -8218.630644  22244.556451 -12167.728937   -414.334616                    
V 11 -13552.222102   7751.904257  24509.841168     -0.035255                    
P 12  -1916.325881 -17389.409751 -20097.114523    153.007548                    
V 12  21373.390647  13529.633531 -13576.587585      0.021792                    
P 13   5829.103473  22145.433055  13200.835301     85.741067                    
V 13  -4235.985760  16571.290741 -25811.788515     -0.037520                    
P 14 -14495.870353  -3666.791782 -21749.406349    217.089977                    
V 14   3193.235945 -27893.762022   2399.603562     -0.008030                    
P 15   2999.812694 -25955.701721   3876.264750   -134.278392                    
V 15   3631.531787   5031.867798  30924.368095     -0.018136                    
P 16 -15194.721752   6259.857871  20911.978253   -247.860386                    
V 16 -21363.793160 -15641.945141 -10498.316505      0.007265                    
P 17  14326.048606   6020.506131 -21346.782106    -15.580309                    
V 17  -2544.619638  27465.250252   5745.558638     -0.038074                    
P 18 -20069.503449 -17047.679545   5099.464701    271.038088                    
V 18   6844.292233    229.295015  29874.078702      0.020080                    
P 19  -8297.302820  23839.880069   7410.924345   -399.829884                    
V 19  -1672.382883  -9967.812099  30164.580144     -0.028533                    
P 20   7560.103115  18936.233890 -17233.204389    118.533691                    
V 20 -19989.707671  -8546.080560 -18271.798673      0.025049                    
P 21 -15586.545595  -8814.816784  20336.328890   -315.774598                    
V 21  21215.113454 -12343.873095  10724.068828     -0.018993                    
P 22 -24031.760954  -9455.152834  -6324.835059    182.080879                    
V 22  -5067.170643  -7540.087998  29429.779768      0.017012                    
P 23   1258.614867  26075.939983   3576.693509     53.523690                    
V 23  -3537.012041   4325.191875 -31443.442412     -0.034783                    
P 24   8491.664476 -18332.095632 -17225.677315    -12.650049                    
V 24  20099.402251  -8832.379982  19360.931329     -0.007132                    
P 25 -15055.216701 -18635.548539 -11634.712721    140.646019                    
V 25  13462.149704   6039.574977 -27137.892253      0.044656                    
P 26  12488.300465 -17261.841983  15011.473366    162.523201                    
V 26   -633.687491  20402.860577  23330.813900      0.177164                    
P 27 -12458.100579  16113.686583  17029.712744    -29.394071                    
V 27  -1033.275524 -21697.872706  19773.086123     -0.047277                    
P 28  22649.339939  13535.800923  -3171.167689    287.769383                    
V 28   2704.761409   4348.907561  31817.914853      0.031912                    
P 29  -5423.910846 -23691.500814  10800.688748    465.833965                    
V 29   3417.828895 -13385.633892 -27708.083087      0.031750                    
P 31 -24544.863081   5680.569699  -8679.531358    324.508449                    
V 31   9175.384355  -6605.071874 -29415.852096      0.009193                    
P 32  -2935.461063  16375.239055 -20690.105112   -552.468730                    
V 32 -21526.819793 -15418.645046  -8572.416748      0.022938                    
EOF
